[{"spaceTrack":{"CCSDS_OMM_VERS":"2.0","COMMENT":"GENERATED VIA SPACE-TRACK.ORG API","CREATION_DATE":"2020-09-20 06:36:10","ORIGINATOR":"18 SPCS","OBJECT_NAME":"STARLINK-1013","OBJECT_ID":"2019-074G","CENTER_NAME":"EARTH","REF_FRAME":"TEME","TIME_SYSTEM":"UTC","MEAN_ELEMENT_THEORY":"SGP4","EPOCH":"2020-09-20 04:00:00.999936","MEAN_MOTION":15.05582788,"ECCENTRICITY":0.0001594,"INCLINATION":52.9981,"RA_OF_ASC_NODE":149.3575,"ARG_OF_PERICENTER":72.9636,"MEAN_ANOMALY":142.6282,"EPHEMERIS_TYPE":0,"CLASSIFICATION_TYPE":"U","NORAD_CAT_ID":44719,"ELEMENT_SET_NO":999,"REV_AT_EPOCH":4800,"BSTAR":0.0024406,"MEAN_MOTION_DOT":0.00035462,"MEAN_MOTION_DDOT":0,"SEMIMAJOR_AXIS":6927.854,"PERIOD":95.644,"APOAPSIS":550.823,"PERIAPSIS":548.615,"OBJECT_TYPE":"PAYLOAD","RCS_SIZE":"LARGE","COUNTRY_CODE":"US","LAUNCH_DATE":"2019-11-11","SITE":"AFETR","DECAY_DATE":null,"DECAYED":0,"FILE":2828812,"GP_ID":161766159,"TLE_LINE0":"0 STARLINK-1013","TLE_LINE1":"1 44719U 19074G   20264.16667824  .00035462  00000-0  24406-2 0  9998","TLE_LINE2":"2 44719  52.9981 149.3575 0001594  72.9636 142.6282 15.05582788 48003"},"version":"v1.0","launch":"5eb87d39ffd86e000604b37d","longitude":-118.78491263374733,"latitude":-35.39747286110209,"height_km":561.4318039476102,"velocity_kms":7.580180143762449,"id":"5eed7714096e590006985651"},{"spaceTrack":{"CCSDS_OMM_VERS":"2.0","COMMENT":"GENERATED VIA SPACE-TRACK.ORG API","CREATION_DATE":"2020-09-20 06:36:10","ORIGINATOR":"18 SPCS","OBJECT_NAME":"STARLINK-1019","OBJECT_ID":"2019-074M","CENTER_NAME":"EARTH","REF_FRAME":"TEME","TIME_SYSTEM":"UTC","MEAN_ELEMENT_THEORY":"SGP4","EPOCH":"2020-09-20 04:00:00.999936","MEAN_MOTION":15.05559276,"ECCENTRICITY":0.0001944,"INCLINATION":52.9992,"RA_OF_ASC_NODE":149.3609,"ARG_OF_PERICENTER":75.3049,"MEAN_ANOMALY":212.3056,"EPHEMERIS_TYPE":0,"CLASSIFICATION_TYPE":"U","NORAD_CAT_ID":44724,"ELEMENT_SET_NO":999,"REV_AT_EPOCH":4800,"BSTAR":0.002327,"MEAN_MOTION_DOT":0.00033769,"MEAN_MOTION_DDOT":0,"SEMIMAJOR_AXIS":6927.926,"PERIOD":95.645,"APOAPSIS":551.138,"PERIAPSIS":548.444,"OBJECT_TYPE":"PAYLOAD","RCS_SIZE":"LARGE","COUNTRY_CODE":"US","LAUNCH_DATE":"2019-11-11","SITE":"AFETR","DECAY_DATE":null,"DECAYED":0,"FILE":2828812,"GP_ID":161765658,"TLE_LINE0":"0 STARLINK-1019","TLE_LINE1":"1 44724U 19074M   20264.16667824  .00033769  00000-0  23270-2 0  9990","TLE_LINE2":"2 44724  52.9992 149.3609 0001944  75.3049 212.3056 15.05559276 48003"},"version":"v1.0","launch":"5eb87d39ffd86e000604b37d","longitude":-70.51076133091799,"latitude":20.286750368622872,"height_km":549.3197540793044,"velocity_kms":7.590699958758381,"id":"5eed7714096e590006985652"},{"spaceTrack":{"CCSDS_OMM_VERS":"2.0","COMMENT":"GENERATED VIA SPACE-TRACK.ORG API","CREATION_DATE":"2020-09-20 14:46:10","ORIGINATOR":"18 SPCS","OBJECT_NAME":"STARLINK-1023","OBJECT_ID":"2019-074R","CENTER_NAME":"EARTH","REF_FRAME":"TEME","TIME_SYSTEM":"UTC","MEAN_ELEMENT_THEORY":"SGP4","EPOCH":"2020-09-20 14:00:01.000224","MEAN_MOTION":15.05569901,"ECCENTRICITY":0.0001644,"INCLINATION":52.9999,"RA_OF_ASC_NODE":147.4867,"ARG_OF_PERICENTER":85.5186,"MEAN_ANOMALY":85.6851,"EPHEMERIS_TYPE":0,"CLASSIFICATION_TYPE":"U","NORAD_CAT_ID":44728,"ELEMENT_SET_NO":999,"REV_AT_EPOCH":4807,"BSTAR":0.0024296,"MEAN_MOTION_DOT":0.00035288,"MEAN_MOTION_DDOT":0,"SEMIMAJOR_AXIS":6927.893,"PERIOD":95.644,"APOAPSIS":550.897,"PERIAPSIS":548.619,"OBJECT_TYPE":"PAYLOAD","RCS_SIZE":"LARGE","COUNTRY_CODE":"US","LAUNCH_DATE":"2019-11-11","SITE":"AFETR","DECAY_DATE":null,"DECAYED":0,"FILE":2829288,"GP_ID":161774659,"TLE_LINE0":"0 STARLINK-1023","TLE_LINE1":"1 44728U 19074R   20264.58334491  .00035288  00000-0  24296-2 0  9998","TLE_LINE2":"2 44728  52.9999 147.4867 0001644  85.5186  85.6851 15.05569901 48078"},"version":"v1.0","launch":"5eb87d39ffd86e000604b37d","longitude":87.26697050122075,"latitude":8.107381863602894,"height_km":549.810165990677,"velocity_kms":7.588893912134426,"id":"5eed7714096e590006985653"},{"spaceTrack":{"CCSDS_OMM_VERS":"2.0","COMMENT":"GENERATED VIA SPACE-TRACK.ORG API","CREATION_DATE":"2020-09-20 06:36:10","ORIGINATOR":"18 SPCS","OBJECT_NAME":"STARLINK-1020","OBJECT_ID":"2019-074N","CENTER_NAME":"EARTH","REF_FRAME":"TEME","TIME_SYSTEM":"UTC","MEAN_ELEMENT_THEORY":"SGP4","EPOCH":"2020-09-20 04:00:00.999936","MEAN_MOTION":15.05564664,"ECCENTRICITY":0.0001723,"INCLINATION":52.9986,"RA_OF_ASC_NODE":169.3607,"ARG_OF_PERICENTER":71.2034,"MEAN_ANOMALY":142.2699,"EPHEMERIS_TYPE":0,"CLASSIFICATION_TYPE":"U","NORAD_CAT_ID":44725,"ELEMENT_SET_NO":999,"REV_AT_EPOCH":4772,"BSTAR":0.0028263,"MEAN_MOTION_DOT":0.00041124,"MEAN_MOTION_DDOT":0,"SEMIMAJOR_AXIS":6927.909,"PERIOD":95.645,"APOAPSIS":550.968,"PERIAPSIS":548.581,"OBJECT_TYPE":"PAYLOAD","RCS_SIZE":"LARGE","COUNTRY_CODE":"US","LAUNCH_DATE":"2019-11-11","SITE":"AFETR","DECAY_DATE":null,"DECAYED":0,"FILE":2828817,"GP_ID":161765681,"TLE_LINE0":"0 STARLINK-1020","TLE_LINE1":"1 44725U 19074N   20264.16667824  .00041124  00000-0  28263-2 0  9992","TLE_LINE2":"2 44725  52.9986 169.3607 0001723  71.2034 142.2699 15.05564664 47720"},"version":"v1.0","launch":"5eb87d39ffd86e000604b37d","longitude":-100.75458176045761,"latitude":-36.83585051533051,"height_km":562.1091372478222,"velocity_kms":7.579769702738294,"id":"5eed7714096e590006985654"},{"spaceTrack":{"CCSDS_OMM_VERS":"2.0","COMMENT":"GENERATED VIA SPACE-TRACK.ORG API","CREATION_DATE":"2020-09-20 14:46:10","ORIGINATOR":"18 SPCS","OBJECT_NAME":"STARLINK-1024","OBJECT_ID":"2019-074S","CENTER_NAME":"EARTH","REF_FRAME":"TEME","TIME_SYSTEM":"UTC","MEAN_ELEMENT_THEORY":"SGP4","EPOCH":"2020-09-20 14:00:01.000224","MEAN_MOTION":15.05591413,"ECCENTRICITY":0.0002116,"INCLINATION":52.9993,"RA_OF_ASC_NODE":167.4864,"ARG_OF_PERICENTER":84.3141,"MEAN_ANOMALY":139.2695,"EPHEMERIS_TYPE":0,"CLASSIFICATION_TYPE":"U","NORAD_CAT_ID":44729,"ELEMENT_SET_NO":999,"REV_AT_EPOCH":4779,"BSTAR":0.0024554,"MEAN_MOTION_DOT":0.00035689,"MEAN_MOTION_DDOT":0,"SEMIMAJOR_AXIS":6927.827,"PERIOD":95.643,"APOAPSIS":551.158,"PERIAPSIS":548.226,"OBJECT_TYPE":"PAYLOAD","RCS_SIZE":"LARGE","COUNTRY_CODE":"US","LAUNCH_DATE":"2019-11-11","SITE":"AFETR","DECAY_DATE":null,"DECAYED":0,"FILE":2829287,"GP_ID":161774647,"TLE_LINE0":"0 STARLINK-1024","TLE_LINE1":"1 44729U 19074S   20264.58334491  .00035689  00000-0  24554-2 0  9991","TLE_LINE2":"2 44729  52.9993 167.4864 0002116  84.3141 139.2695 15.05591413 47798"},"version":"v1.0","launch":"5eb87d39ffd86e000604b37d","longitude":142.0822759576818,"latitude":-32.640505916644614,"height_km":560.9089868457986,"velocity_kms":7.580210468353118,"id":"5eed7714096e590006985655"},{"spaceTrack":{"CCSDS_OMM_VERS":"2.0","COMMENT":"GENERATED VIA SPACE-TRACK.ORG API","CREATION_DATE":"2020-09-20 14:46:10","ORIGINATOR":"18 SPCS","OBJECT_NAME":"STARLINK-1021","OBJECT_ID":"2019-074P","CENTER_NAME":"EARTH","REF_FRAME":"TEME","TIME_SYSTEM":"UTC","MEAN_ELEMENT_THEORY":"SGP4","EPOCH":"2020-09-20 14:00:01.000224","MEAN_MOTION":15.05573869,"ECCENTRICITY":0.0001891,"INCLINATION":52.999,"RA_OF_ASC_NODE":147.488,"ARG_OF_PERICENTER":89.1201,"MEAN_ANOMALY":316.1092,"EPHEMERIS_TYPE":0,"CLASSIFICATION_TYPE":"U","NORAD_CAT_ID":44726,"ELEMENT_SET_NO":999,"REV_AT_EPOCH":4806,"BSTAR":0.0030638,"MEAN_MOTION_DOT":0.00044636,"MEAN_MOTION_DDOT":0,"SEMIMAJOR_AXIS":6927.881,"PERIOD":95.644,"APOAPSIS":551.056,"PERIAPSIS":548.436,"OBJECT_TYPE":"PAYLOAD","RCS_SIZE":"LARGE","COUNTRY_CODE":"US","LAUNCH_DATE":"2019-11-11","SITE":"AFETR","DECAY_DATE":null,"DECAYED":0,"FILE":2829290,"GP_ID":161774639,"TLE_LINE0":"0 STARLINK-1021","TLE_LINE1":"1 44726U 19074P   20264.58334491  .00044636  00000-0  30638-2 0  9990","TLE_LINE2":"2 44726  52.9990 147.4880 0001891  89.1201 316.1092 15.05573869 48060"},"version":"v1.0","launch":"5eb87d39ffd86e000604b37d","longitude":-56.665414536222485,"latitude":33.66010125752415,"height_km":551.1307812962204,"velocity_kms":7.591158369738498,"id":"5eed7714096e590006985656"},{"spaceTrack":{"CCSDS_OMM_VERS":"2.0","COMMENT":"GENERATED VIA SPACE-TRACK.ORG API","CREATION_DATE":"2020-09-20 06:36:10","ORIGINATOR":"18 SPCS","OBJECT_NAME":"STARLINK-1039","OBJECT_ID":"2019-074AH","CENTER_NAME":"EARTH","REF_FRAME":"TEME","TIME_SYSTEM":"UTC","MEAN_ELEMENT_THEORY":"SGP4","EPOCH":"2020-09-20 04:00:00.999936","MEAN_MOTION":15.05584628,"ECCENTRICITY":0.0002155,"INCLINATION":53.0012,"RA_OF_ASC_NODE":189.3565,"ARG_OF_PERICENTER":71.1597,"MEAN_ANOMALY":16.6349,"EPHEMERIS_TYPE":0,"CLASSIFICATION_TYPE":"U","NORAD_CAT_ID":44744,"ELEMENT_SET_NO":999,"REV_AT_EPOCH":4744,"BSTAR":0.0011307,"MEAN_MOTION_DOT":0.00016235,"MEAN_MOTION_DDOT":0,"SEMIMAJOR_AXIS":6927.848,"PERIOD":95.643,"APOAPSIS":551.206,"PERIAPSIS":548.22,"OBJECT_TYPE":"PAYLOAD","RCS_SIZE":"LARGE","COUNTRY_CODE":"US","LAUNCH_DATE":"2019-11-11","SITE":"AFETR","DECAY_DATE":null,"DECAYED":0,"FILE":2828819,"GP_ID":161765735,"TLE_LINE0":"0 STARLINK-1039","TLE_LINE1":"1 44744U 19074AH  20264.16667824  .00016235  00000-0  11307-2 0  9999","TLE_LINE2":"2 44744  53.0012 189.3565 0002155  71.1597  16.6349 15.05584628 47448"},"version":"v1.0","launch":"5eb87d39ffd86e000604b37d","longitude":137.11481269765775,"latitude":-4.951696249708779,"height_km":551.9039028093557,"velocity_kms":7.58639596544697,"id":"5eed7714096e590006985657"}]